[{"OBJECT_NAME":"STARLINK-32042","OBJECT_ID":"2024-117T","EPOCH":"2026-03-09T22:01:21.669024","MEAN_MOTION":15.30190042,"ECCENTRICITY":0.00011199,"INCLINATION":53.1613,"RA_OF_ASC_NODE":35.8956,"ARG_OF_PERICENTER":73.8704,"MEAN_ANOMALY":286.242,"EPHEMERIS_TYPE":0,"CLASSIFICATION_TYPE":"U","NORAD_CAT_ID":60108,"ELEMENT_SET_NO":999,"REV_AT_EPOCH":9692,"BSTAR":-1.2972571e-5,"MEAN_MOTION_DOT":-7.43e-6,"MEAN_MOTION_DDOT":0},{"OBJECT_NAME":"TEVEL2-2","OBJECT_ID":"2025-052K","EPOCH":"2026-03-09T15:33:48.895776","MEAN_MOTION":15.30343745,"ECCENTRICITY":0.0004693,"INCLINATION":97.3987,"RA_OF_ASC_NODE":324.77,"ARG_OF_PERICENTER":105.793,"MEAN_ANOMALY":254.3828,"EPHEMERIS_TYPE":0,"CLASSIFICATION_TYPE":"U","NORAD_CAT_ID":63219,"ELEMENT_SET_NO":999,"REV_AT_EPOCH":5485,"BSTAR":0.00069428,"MEAN_MOTION_DOT":0.00020339,"MEAN_MOTION_DDOT":0}]
